ADRAS-J                 
1 58992U 24034A   24157.65762730  .00004999  00000+0  46661-3 0  9997
2 58992  98.2107 130.1576 0045643  87.1219 273.5222 14.93888260 16149
